STARLINK-2081           
1 47366U 21005T   25212.59512180 -.00000440  00000+0 -10647-4 0  9998
2 47366  53.0564 334.1506 0001154  81.4089 278.7031 15.06402257249717
STARLINK-2082           
1 47367U 21005U   25212.81996252 -.00000698  00000+0 -27972-4 0  9994
2 47367  53.0552 333.1401 0001323  87.3199 272.7941 15.06399444249754
STARLINK-2084           
1 47368U 21005V   25212.61357243  .00004133  00000+0  29618-3 0  9998
2 47368  53.0555 334.0708 0001084  93.2885 266.8228 15.06397652249728
STARLINK-2086           
1 47370U 21005X   25212.49537600  .00071344  00000+0  22977-2 0  9992
2 47370  53.0532 290.9333 0002433 343.9038  16.1884 15.31573524250328
STARLINK-2088           
1 47371U 21005Y   25212.62832077  .00012723  00000+0  87120-3 0  9992
2 47371  53.0563 334.0001 0001149  97.5107 262.6013 15.06413686249725
STARLINK-2092           
1 47373U 21005AA  25212.62461678  .00000422  00000+0  47258-4 0  9991
2 47373  53.0561 334.0164 0001264  86.9042 273.2091 15.06390679249723
STARLINK-2093           
1 47374U 21005AB  25212.57668896 -.00002146  00000+0 -12524-3 0  9991
2 47374  53.0555 334.2036 0001313  87.6818 272.4321 15.06387869249714
STARLINK-2094           
1 47375U 21005AC  25212.58407262 -.00000794  00000+0 -34446-4 0  9996
2 47375  53.0557 334.2011 0001225  86.7031 273.4098 15.06385581249710
STARLINK-2096           
1 47376U 21005AD  25212.58775628 -.00001215  00000+0 -62695-4 0  9997
2 47376  53.0545 334.1853 0001269  90.9104 269.2030 15.06390206249716
STARLINK-2097           
1 47377U 21005AE  25212.63935803 -.00001916  00000+0 -10979-3 0  9992
2 47377  53.0568 333.9572 0001482 101.0378 259.0778 15.06387068249720
STARLINK-2098           
1 47378U 21005AF  25212.49929762  .00000331  00000+0  41122-4 0  9997
2 47378  53.0556 294.5819 0001184  86.1330 273.9794 15.06394736250268
STARLINK-2099           
1 47379U 21005AG  25212.50571627  .00000415  00000+0  46730-4 0  9996
2 47379  53.0557 294.5435 0001238  96.4769 263.6361 15.06389180250267
STARLINK-2100           
1 47380U 21005AH  25212.53523239 -.00000844  00000+0 -37815-4 0  9999
2 47380  53.0534 304.4220 0001280  91.4951 268.6185 15.06383435250134
STARLINK-2101           
1 47381U 21005AJ  25212.55137160 -.00001362  00000+0 -72601-4 0  9994
2 47381  53.0545 309.4374 0001227  89.2226 270.8904 15.06386345250062
STARLINK-2102           
1 47382U 21005AK  25212.52787703  .00011910  00000+0  81697-3 0  9998
2 47382  53.0542 304.4551 0001322  73.7270 286.3865 15.06406729250129
STARLINK-2103           
1 47383U 21005AL  25212.50670253  .00001030  00000+0  88083-4 0  9997
2 47383  53.0554 294.8281 0001388  85.7771 274.3377 15.06390946250269
