[{"OBJECT_NAME":"STARLINK-2081","OBJECT_ID":"2021-005T","EPOCH":"2025-07-31T14:16:58.523520","MEAN_MOTION":15.06402257,"ECCENTRICITY":0.0001154,"INCLINATION":53.0564,"RA_OF_ASC_NODE":334.1506,"ARG_OF_PERICENTER":81.4089,"MEAN_ANOMALY":278.7031,"EPHEMERIS_TYPE":0,"CLASSIFICATION_TYPE":"U","NORAD_CAT_ID":47366,"ELEMENT_SET_NO":999,"REV_AT_EPOCH":24971,"BSTAR":-1.0647e-5,"MEAN_MOTION_DOT":-4.4e-6,"MEAN_MOTION_DDOT":0},{"OBJECT_NAME":"STARLINK-2082","OBJECT_ID":"2021-005U","EPOCH":"2025-07-31T19:40:44.761728","MEAN_MOTION":15.06399444,"ECCENTRICITY":0.0001323,"INCLINATION":53.0552,"RA_OF_ASC_NODE":333.1401,"ARG_OF_PERICENTER":87.3199,"MEAN_ANOMALY":272.7941,"EPHEMERIS_TYPE":0,"CLASSIFICATION_TYPE":"U","NORAD_CAT_ID":47367,"ELEMENT_SET_NO":999,"REV_AT_EPOCH":24975,"BSTAR":-2.7972e-5,"MEAN_MOTION_DOT":-6.98e-6,"MEAN_MOTION_DDOT":0},{"OBJECT_NAME":"STARLINK-2084","OBJECT_ID":"2021-005V","EPOCH":"2025-07-31T14:43:32.657952","MEAN_MOTION":15.06397652,"ECCENTRICITY":0.0001084,"INCLINATION":53.0555,"RA_OF_ASC_NODE":334.0708,"ARG_OF_PERICENTER":93.2885,"MEAN_ANOMALY":266.8228,"EPHEMERIS_TYPE":0,"CLASSIFICATION_TYPE":"U","NORAD_CAT_ID":47368,"ELEMENT_SET_NO":999,"REV_AT_EPOCH":24972,"BSTAR":0.00029618,"MEAN_MOTION_DOT":4.133e-5,"MEAN_MOTION_DDOT":0},{"OBJECT_NAME":"STARLINK-2086","OBJECT_ID":"2021-005X","EPOCH":"2025-07-31T11:53:20.486400","MEAN_MOTION":15.31573524,"ECCENTRICITY":0.0002433,"INCLINATION":53.0532,"RA_OF_ASC_NODE":290.9333,"ARG_OF_PERICENTER":343.9038,"MEAN_ANOMALY":16.1884,"EPHEMERIS_TYPE":0,"CLASSIFICATION_TYPE":"U","NORAD_CAT_ID":47370,"ELEMENT_SET_NO":999,"REV_AT_EPOCH":25032,"BSTAR":0.0022977,"MEAN_MOTION_DOT":0.00071344,"MEAN_MOTION_DDOT":0},{"OBJECT_NAME":"STARLINK-2088","OBJECT_ID":"2021-005Y","EPOCH":"2025-07-31T15:04:46.914528","MEAN_MOTION":15.06413686,"ECCENTRICITY":0.0001149,"INCLINATION":53.0563,"RA_OF_ASC_NODE":334.0001,"ARG_OF_PERICENTER":97.5107,"MEAN_ANOMALY":262.6013,"EPHEMERIS_TYPE":0,"CLASSIFICATION_TYPE":"U","NORAD_CAT_ID":47371,"ELEMENT_SET_NO":999,"REV_AT_EPOCH":24972,"BSTAR":0.0008712,"MEAN_MOTION_DOT":0.00012723,"MEAN_MOTION_DDOT":0},{"OBJECT_NAME":"STARLINK-2092","OBJECT_ID":"2021-005AA","EPOCH":"2025-07-31T14:59:26.889792","MEAN_MOTION":15.06390679,"ECCENTRICITY":0.0001264,"INCLINATION":53.0561,"RA_OF_ASC_NODE":334.0164,"ARG_OF_PERICENTER":86.9042,"MEAN_ANOMALY":273.2091,"EPHEMERIS_TYPE":0,"CLASSIFICATION_TYPE":"U","NORAD_CAT_ID":47373,"ELEMENT_SET_NO":999,"REV_AT_EPOCH":24972,"BSTAR":4.7258e-5,"MEAN_MOTION_DOT":4.22e-6,"MEAN_MOTION_DDOT":0},{"OBJECT_NAME":"STARLINK-2093","OBJECT_ID":"2021-005AB","EPOCH":"2025-07-31T13:50:25.926144","MEAN_MOTION":15.06387869,"ECCENTRICITY":0.0001313,"INCLINATION":53.0555,"RA_OF_ASC_NODE":334.2036,"ARG_OF_PERICENTER":87.6818,"MEAN_ANOMALY":272.4321,"EPHEMERIS_TYPE":0,"CLASSIFICATION_TYPE":"U","NORAD_CAT_ID":47374,"ELEMENT_SET_NO":999,"REV_AT_EPOCH":24971,"BSTAR":-0.00012524,"MEAN_MOTION_DOT":-2.146e-5,"MEAN_MOTION_DDOT":0},{"OBJECT_NAME":"STARLINK-2094","OBJECT_ID":"2021-005AC","EPOCH":"2025-07-31T14:01:03.874368","MEAN_MOTION":15.06385581,"ECCENTRICITY":0.0001225,"INCLINATION":53.0557,"RA_OF_ASC_NODE":334.2011,"ARG_OF_PERICENTER":86.7031,"MEAN_ANOMALY":273.4098,"EPHEMERIS_TYPE":0,"CLASSIFICATION_TYPE":"U","NORAD_CAT_ID":47375,"ELEMENT_SET_NO":999,"REV_AT_EPOCH":24971,"BSTAR":-3.4446e-5,"MEAN_MOTION_DOT":-7.94e-6,"MEAN_MOTION_DDOT":0},{"OBJECT_NAME":"STARLINK-2096","OBJECT_ID":"2021-005AD","EPOCH":"2025-07-31T14:06:22.142592","MEAN_MOTION":15.06390206,"ECCENTRICITY":0.0001269,"INCLINATION":53.0545,"RA_OF_ASC_NODE":334.1853,"ARG_OF_PERICENTER":90.9104,"MEAN_ANOMALY":269.203,"EPHEMERIS_TYPE":0,"CLASSIFICATION_TYPE":"U","NORAD_CAT_ID":47376,"ELEMENT_SET_NO":999,"REV_AT_EPOCH":24971,"BSTAR":-6.2695e-5,"MEAN_MOTION_DOT":-1.215e-5,"MEAN_MOTION_DDOT":0},{"OBJECT_NAME":"STARLINK-2097","OBJECT_ID":"2021-005AE","EPOCH":"2025-07-31T15:20:40.533792","MEAN_MOTION":15.06387068,"ECCENTRICITY":0.0001482,"INCLINATION":53.0568,"RA_OF_ASC_NODE":333.9572,"ARG_OF_PERICENTER":101.0378,"MEAN_ANOMALY":259.0778,"EPHEMERIS_TYPE":0,"CLASSIFICATION_TYPE":"U","NORAD_CAT_ID":47377,"ELEMENT_SET_NO":999,"REV_AT_EPOCH":24972,"BSTAR":-0.00010979,"MEAN_MOTION_DOT":-1.916e-5,"MEAN_MOTION_DDOT":0},{"OBJECT_NAME":"STARLINK-2098","OBJECT_ID":"2021-005AF","EPOCH":"2025-07-31T11:58:59.314368","MEAN_MOTION":15.06394736,"ECCENTRICITY":0.0001184,"INCLINATION":53.0556,"RA_OF_ASC_NODE":294.5819,"ARG_OF_PERICENTER":86.133,"MEAN_ANOMALY":273.9794,"EPHEMERIS_TYPE":0,"CLASSIFICATION_TYPE":"U","NORAD_CAT_ID":47378,"ELEMENT_SET_NO":999,"REV_AT_EPOCH":25026,"BSTAR":4.1122e-5,"MEAN_MOTION_DOT":3.31e-6,"MEAN_MOTION_DDOT":0},{"OBJECT_NAME":"STARLINK-2099","OBJECT_ID":"2021-005AG","EPOCH":"2025-07-31T12:08:13.885728","MEAN_MOTION":15.0638918,"ECCENTRICITY":0.0001238,"INCLINATION":53.0557,"RA_OF_ASC_NODE":294.5435,"ARG_OF_PERICENTER":96.4769,"MEAN_ANOMALY":263.6361,"EPHEMERIS_TYPE":0,"CLASSIFICATION_TYPE":"U","NORAD_CAT_ID":47379,"ELEMENT_SET_NO":999,"REV_AT_EPOCH":25026,"BSTAR":4.673e-5,"MEAN_MOTION_DOT":4.15e-6,"MEAN_MOTION_DDOT":0},{"OBJECT_NAME":"STARLINK-2100","OBJECT_ID":"2021-005AH","EPOCH":"2025-07-31T12:50:44.078496","MEAN_MOTION":15.06383435,"ECCENTRICITY":0.000128,"INCLINATION":53.0534,"RA_OF_ASC_NODE":304.422,"ARG_OF_PERICENTER":91.4951,"MEAN_ANOMALY":268.6185,"EPHEMERIS_TYPE":0,"CLASSIFICATION_TYPE":"U","NORAD_CAT_ID":47380,"ELEMENT_SET_NO":999,"REV_AT_EPOCH":25013,"BSTAR":-3.7815e-5,"MEAN_MOTION_DOT":-8.44e-6,"MEAN_MOTION_DDOT":0},{"OBJECT_NAME":"STARLINK-2101","OBJECT_ID":"2021-005AJ","EPOCH":"2025-07-31T13:13:58.506240","MEAN_MOTION":15.06386345,"ECCENTRICITY":0.0001227,"INCLINATION":53.0545,"RA_OF_ASC_NODE":309.4374,"ARG_OF_PERICENTER":89.2226,"MEAN_ANOMALY":270.8904,"EPHEMERIS_TYPE":0,"CLASSIFICATION_TYPE":"U","NORAD_CAT_ID":47381,"ELEMENT_SET_NO":999,"REV_AT_EPOCH":25006,"BSTAR":-7.2601e-5,"MEAN_MOTION_DOT":-1.362e-5,"MEAN_MOTION_DDOT":0},{"OBJECT_NAME":"STARLINK-2102","OBJECT_ID":"2021-005AK","EPOCH":"2025-07-31T12:40:08.575392","MEAN_MOTION":15.06406729,"ECCENTRICITY":0.0001322,"INCLINATION":53.0542,"RA_OF_ASC_NODE":304.4551,"ARG_OF_PERICENTER":73.727,"MEAN_ANOMALY":286.3865,"EPHEMERIS_TYPE":0,"CLASSIFICATION_TYPE":"U","NORAD_CAT_ID":47382,"ELEMENT_SET_NO":999,"REV_AT_EPOCH":25012,"BSTAR":0.00081697,"MEAN_MOTION_DOT":0.0001191,"MEAN_MOTION_DDOT":0},{"OBJECT_NAME":"STARLINK-2103","OBJECT_ID":"2021-005AL","EPOCH":"2025-07-31T12:09:39.098592","MEAN_MOTION":15.06390946,"ECCENTRICITY":0.0001388,"INCLINATION":53.0554,"RA_OF_ASC_NODE":294.8281,"ARG_OF_PERICENTER":85.7771,"MEAN_ANOMALY":274.3377,"EPHEMERIS_TYPE":0,"CLASSIFICATION_TYPE":"U","NORAD_CAT_ID":47383,"ELEMENT_SET_NO":999,"REV_AT_EPOCH":25026,"BSTAR":8.8083e-5,"MEAN_MOTION_DOT":1.03e-5,"MEAN_MOTION_DDOT":0}]
